{
  "type": "FeatureCollection",
  "features": [
    {
      "type": "Feature",
      "properties": {
        "norad_id": 66625,
        "name": "STARLINK-35929",
        "group": "last-30-days",
        "lat": -52.92230963307106,
        "lon": 48.67272491087702,
        "alt_km": 452.5785251462012,
        "timestamp": "2025-12-24T11:32:58.717229+00:00",
        "meta_object_name": "STARLINK-35929",
        "meta_object_id": "2025-271J",
        "meta_epoch": "2025-12-24T02:34:23.921184",
        "meta_mean_motion": 15.39636358,
        "meta_eccentricity": 0.0001077,
        "meta_inclination": 53.1612,
        "meta_ra_of_asc_node": 133.2116,
        "meta_arg_of_pericenter": 83.5284,
        "meta_mean_anomaly": 276.5843,
        "meta_ephemeris_type": 0,
        "meta_classification_type": "U",
        "meta_norad_cat_id": 66625,
        "meta_element_set_no": 999,
        "meta_rev_at_epoch": 596,
        "meta_bstar": 0.001652,
        "meta_mean_motion_dot": 0.00066291,
        "meta_mean_motion_ddot": 0,
        "tle_line1": "1 66625U 25271J   25358.10722131  .00066291  00000+0  16520-2 0  9991",
        "tle_line2": "2 66625  53.1612 133.2116 0001077  83.5284 276.5843 15.39636358  5961"
      },
      "geometry": {
        "type": "Point",
        "coordinates": [
          48.67272491087702,
          -52.92230963307106
        ]
      }
    },
    {
      "type": "Feature",
      "properties": {
        "norad_id": 66626,
        "name": "STARLINK-35902",
        "group": "last-30-days",
        "lat": -13.779379951350828,
        "lon": -37.80535135400826,
        "alt_km": 449.6379714172117,
        "timestamp": "2025-12-24T11:32:58.717239+00:00",
        "meta_object_name": "STARLINK-35902",
        "meta_object_id": "2025-271K",
        "meta_epoch": "2025-12-23T20:40:32.560608",
        "meta_mean_motion": 15.39657633,
        "meta_eccentricity": 3.018e-05,
        "meta_inclination": 53.1603,
        "meta_ra_of_asc_node": 134.5213,
        "meta_arg_of_pericenter": 38.6055,
        "meta_mean_anomaly": 321.4971,
        "meta_ephemeris_type": 0,
        "meta_classification_type": "U",
        "meta_norad_cat_id": 66626,
        "meta_element_set_no": 999,
        "meta_rev_at_epoch": 592,
        "meta_bstar": 0.0011579429,
        "meta_mean_motion_dot": 0.00046256,
        "meta_mean_motion_ddot": 0,
        "tle_line1": "1 66626U 25271K   25357.86148797  .00046256  00000+0  11579-2 0  9992",
        "tle_line2": "2 66626  53.1603 134.5213 0000301  38.6055 321.4971 15.39657633  5927"
      },
      "geometry": {
        "type": "Point",
        "coordinates": [
          -37.80535135400826,
          -13.779379951350828
        ]
      }
    },
    {
      "type": "Feature",
      "properties": {
        "norad_id": 66627,
        "name": "STARLINK-35904",
        "group": "last-30-days",
        "lat": -48.166464592730954,
        "lon": 8.374963379228554,
        "alt_km": 453.26160194678414,
        "timestamp": "2025-12-24T11:32:58.717249+00:00",
        "meta_object_name": "STARLINK-35904",
        "meta_object_id": "2025-271L",
        "meta_epoch": "2025-12-24T02:41:05.525664",
        "meta_mean_motion": 15.39625433,
        "meta_eccentricity": 0.0002337,
        "meta_inclination": 53.1614,
        "meta_ra_of_asc_node": 133.2407,
        "meta_arg_of_pericenter": 88.5134,
        "meta_mean_anomaly": 271.6139,
        "meta_ephemeris_type": 0,
        "meta_classification_type": "U",
        "meta_norad_cat_id": 66627,
        "meta_element_set_no": 999,
        "meta_rev_at_epoch": 592,
        "meta_bstar": 0.0014527,
        "meta_mean_motion_dot": 0.00058163,
        "meta_mean_motion_ddot": 0,
        "tle_line1": "1 66627U 25271L   25358.11186951  .00058163  00000+0  14527-2 0  9992",
        "tle_line2": "2 66627  53.1614 133.2407 0002337  88.5134 271.6139 15.39625433  5929"
      },
      "geometry": {
        "type": "Point",
        "coordinates": [
          8.374963379228554,
          -48.166464592730954
        ]
      }
    },
    {
      "type": "Feature",
      "properties": {
        "norad_id": 66628,
        "name": "STARLINK-35862",
        "group": "last-30-days",
        "lat": 15.120709746353016,
        "lon": 142.92823852717115,
        "alt_km": 445.631909184699,
        "timestamp": "2025-12-24T11:32:58.717260+00:00",
        "meta_object_name": "STARLINK-35862",
        "meta_object_id": "2025-271M",
        "meta_epoch": "2025-12-24T04:00:01.998720",
        "meta_mean_motion": 15.3957096,
        "meta_eccentricity": 0.0001122,
        "meta_inclination": 53.1601,
        "meta_ra_of_asc_node": 132.7229,
        "meta_arg_of_pericenter": 80.1129,
        "meta_mean_anomaly": 354.6592,
        "meta_ephemeris_type": 0,
        "meta_classification_type": "U",
        "meta_norad_cat_id": 66628,
        "meta_element_set_no": 999,
        "meta_rev_at_epoch": 607,
        "meta_bstar": 0.0015529,
        "meta_mean_motion_dot": 0.00062124,
        "meta_mean_motion_ddot": 0,
        "tle_line1": "1 66628U 25271M   25358.16668980  .00062124  00000+0  15529-2 0  9990",
        "tle_line2": "2 66628  53.1601 132.7229 0001122  80.1129 354.6592 15.39570960  6071"
      },
      "geometry": {
        "type": "Point",
        "coordinates": [
          142.92823852717115,
          15.120709746353016
        ]
      }
    },
    {
      "type": "Feature",
      "properties": {
        "norad_id": 66629,
        "name": "STARLINK-35956",
        "group": "last-30-days",
        "lat": -11.520308061122225,
        "lon": -40.304573843283436,
        "alt_km": 410.4035898934753,
        "timestamp": "2025-12-24T11:32:58.717273+00:00",
        "meta_object_name": "STARLINK-35956",
        "meta_object_id": "2025-271N",
        "meta_epoch": "2025-12-24T03:00:10.929600",
        "meta_mean_motion": 15.54495323,
        "meta_eccentricity": 0.0008349,
        "meta_inclination": 53.1726,
        "meta_ra_of_asc_node": 132.6261,
        "meta_arg_of_pericenter": 30.8993,
        "meta_mean_anomaly": 329.2508,
        "meta_ephemeris_type": 0,
        "meta_classification_type": "U",
        "meta_norad_cat_id": 66629,
        "meta_element_set_no": 999,
        "meta_rev_at_epoch": 83,
        "meta_bstar": 0.006098,
        "meta_mean_motion_dot": 0.00431359,
        "meta_mean_motion_ddot": 0,
        "tle_line1": "1 66629U 25271N   25358.12512650  .00431359  00000+0  60980-2 0  9990",
        "tle_line2": "2 66629  53.1726 132.6261 0008349  30.8993 329.2508 15.54495323   833"
      },
      "geometry": {
        "type": "Point",
        "coordinates": [
          -40.304573843283436,
          -11.520308061122225
        ]
      }
    },
    {
      "type": "Feature",
      "properties": {
        "norad_id": 66630,
        "name": "STARLINK-35949",
        "group": "last-30-days",
        "lat": 32.92715547126116,
        "lon": 160.23911653447885,
        "alt_km": 440.8201879442686,
        "timestamp": "2025-12-24T11:32:58.717285+00:00",
        "meta_object_name": "STARLINK-35949",
        "meta_object_id": "2025-271P",
        "meta_epoch": "2025-12-24T04:00:01.998720",
        "meta_mean_motion": 15.41854764,
        "meta_eccentricity": 0.0001063,
        "meta_inclination": 53.1599,
        "meta_ra_of_asc_node": 132.6784,
        "meta_arg_of_pericenter": 105.0235,
        "meta_mean_anomaly": 351.8064,
        "meta_ephemeris_type": 0,
        "meta_classification_type": "U",
        "meta_norad_cat_id": 66630,
        "meta_element_set_no": 999,
        "meta_rev_at_epoch": 607,
        "meta_bstar": -0.058398,
        "meta_mean_motion_dot": -0.02253165,
        "meta_mean_motion_ddot": 0,
        "tle_line1": "1 66630U 25271P   25358.16668980 -.02253165  00000+0 -58398-1 0  9994",
        "tle_line2": "2 66630  53.1599 132.6784 0001063 105.0235 351.8064 15.41854764  6077"
      },
      "geometry": {
        "type": "Point",
        "coordinates": [
          160.23911653447885,
          32.92715547126116
        ]
      }
    },
    {
      "type": "Feature",
      "properties": {
        "norad_id": 66631,
        "name": "STARLINK-35965",
        "group": "last-30-days",
        "lat": 35.22396474803605,
        "lon": 163.14816104762818,
        "alt_km": 434.0807062173608,
        "timestamp": "2025-12-24T11:32:58.717298+00:00",
        "meta_object_name": "STARLINK-35965",
        "meta_object_id": "2025-271Q",
        "meta_epoch": "2025-12-24T02:01:10.494336",
        "meta_mean_motion": 15.42508986,
        "meta_eccentricity": 0.0001995,
        "meta_inclination": 53.1597,
        "meta_ra_of_asc_node": 133.0665,
        "meta_arg_of_pericenter": 92.608,
        "meta_mean_anomaly": 267.5155,
        "meta_ephemeris_type": 0,
        "meta_classification_type": "U",
        "meta_norad_cat_id": 66631,
        "meta_element_set_no": 999,
        "meta_rev_at_epoch": 596,
        "meta_bstar": -0.0077114,
        "meta_mean_motion_dot": -0.00325958,
        "meta_mean_motion_ddot": 0,
        "tle_line1": "1 66631U 25271Q   25358.08414924 -.00325958  00000+0 -77114-2 0  9999",
        "tle_line2": "2 66631  53.1597 133.0665 0001995  92.6080 267.5155 15.42508986  5966"
      },
      "geometry": {
        "type": "Point",
        "coordinates": [
          163.14816104762818,
          35.22396474803605
        ]
      }
    }
  ]
}